[{"OBJECT_NAME":"STARLINK-31016","OBJECT_ID":"2023-192T","EPOCH":"2026-03-09T06:23:55.413312","MEAN_MOTION":15.30182859,"ECCENTRICITY":0.00010047,"INCLINATION":53.1604,"RA_OF_ASC_NODE":64.4415,"ARG_OF_PERICENTER":73.1301,"MEAN_ANOMALY":286.981,"EPHEMERIS_TYPE":0,"CLASSIFICATION_TYPE":"U","NORAD_CAT_ID":58548,"ELEMENT_SET_NO":999,"REV_AT_EPOCH":12592,"BSTAR":0.00010662298,"MEAN_MOTION_DOT":2.798e-5,"MEAN_MOTION_DDOT":0},{"OBJECT_NAME":"SCS-01 M","OBJECT_ID":"2025-100M","EPOCH":"2026-03-09T23:50:15.541152","MEAN_MOTION":15.31880861,"ECCENTRICITY":0.00078021,"INCLINATION":97.3725,"RA_OF_ASC_NODE":145.6908,"ARG_OF_PERICENTER":292.3826,"MEAN_ANOMALY":67.6588,"EPHEMERIS_TYPE":0,"CLASSIFICATION_TYPE":"U","NORAD_CAT_ID":63993,"ELEMENT_SET_NO":999,"REV_AT_EPOCH":4565,"BSTAR":0.0012010051,"MEAN_MOTION_DOT":0.00037061,"MEAN_MOTION_DDOT":0}]
